[{"OBJECT_NAME":"STARLINK-36061","OBJECT_ID":"2025-280AC","EPOCH":"2026-03-09T22:00:01.999584","MEAN_MOTION":14.98342573,"ECCENTRICITY":0.00023742,"INCLINATION":70.0018,"RA_OF_ASC_NODE":334.0435,"ARG_OF_PERICENTER":266.5384,"MEAN_ANOMALY":170.7781,"EPHEMERIS_TYPE":0,"CLASSIFICATION_TYPE":"U","NORAD_CAT_ID":66847,"ELEMENT_SET_NO":999,"REV_AT_EPOCH":572,"BSTAR":-0.0024858052,"MEAN_MOTION_DOT":-0.00029637,"MEAN_MOTION_DDOT":0},{"OBJECT_NAME":"CZ-4C R\/B","OBJECT_ID":"2022-035B","EPOCH":"2026-03-09T17:12:26.005824","MEAN_MOTION":14.7427579,"ECCENTRICITY":0.01045469,"INCLINATION":98.2415,"RA_OF_ASC_NODE":134.9721,"ARG_OF_PERICENTER":190.6082,"MEAN_ANOMALY":169.2921,"EPHEMERIS_TYPE":0,"CLASSIFICATION_TYPE":"U","NORAD_CAT_ID":52201,"ELEMENT_SET_NO":999,"REV_AT_EPOCH":21079,"BSTAR":0.0001664192,"MEAN_MOTION_DOT":1.142e-5,"MEAN_MOTION_DDOT":0}]
